MOLNIYA 2-9             
1 07276U 74026A   22329.15421393  .00000191  00000+0  00000+0 0  9996
2 07276  64.2798 204.9964 6419633 279.2310  18.2029  2.45096238253157
MOLNIYA 2-10            
1 07376U 74056A   22327.52220691  .00001182  00000+0  00000+0 0  9998
2 07376  64.3355  78.2146 6761817 285.4436  13.7609  2.01102832353553
MOLNIYA 1-S             
1 07392U 74060A   22329.58135307  .00000145  00000+0  00000+0 0  9996
2 07392   4.7123 280.5055 0010704 217.3984 184.0113  1.00229357121147
MOLNIYA 1-29            
1 07780U 75036A   22329.68135483  .00000098  00000+0 -46126-1 0  9996
2 07780  63.4151 197.5721 6834188 288.0995  12.6359  2.00598499348855
MOLNIYA 2-14            
1 08195U 75081A   22329.49982224 -.00000850  00000+0  00000+0 0  9994
2 08195  63.3900 170.9038 6752154 292.3311  11.9540  2.02080402346141
MOLNIYA 1-32            
1 08601U 76006A   22327.01633198  .00001359  00000+0  00000+0 0  9997
2 08601  63.5073 275.9008 7187266 283.8829  11.4269  2.00002543 55839
MOLNIYA 1-36            
1 09880U 77021A   22328.72998534 -.00001307  00000+0  00000+0 0  9996
2 09880  63.4911 247.7861 7104330 289.5643  10.6927  2.00752063232581
MOLNIYA 3-8             
1 10455U 77105A   22328.98605985 -.00001561  00000+0 -43749-3 0  9996
2 10455  63.4348 333.5372 7345745 282.4872  10.6796  2.00649907330360
MOLNIYA 1-40            
1 10925U 78055A   22329.18344079 -.00000573  00000+0  00000+0 0  9990
2 10925  63.5148  25.2000 7272224 280.7185  11.6699  2.00717595325909
MOLNIYA 3-10            
1 11057U 78095A   22329.62110382  .00000191  00000+0  10915-2 0  9992
2 11057  63.2439 340.0590 5782640 311.5595  11.5345  4.09865610390331
MOLNIYA 3-13            
1 11896U 80063A   22329.44837496 -.00000030  00000+0  00000+0 0  9997
2 11896  62.7480 116.6173 7138990 276.5323  13.7788  2.00647482310320
MOLNIYA 1-49            
1 12156U 81009A   22329.59102991 -.00000105  00000+0 -14666-2 0  9999
2 12156  61.6960 140.6082 7314529 264.7997  16.2369  2.05708958224808
MOLNIYA 1-52            
1 13012U 81123A   22328.91737174  .00001564  00000+0  18226-1 0  9993
2 13012  61.6427 255.6119 7211520 257.0426  20.4975  2.00489919299793
MOLNIYA 1-53            
1 13070U 82015A   22329.57965206 -.00001026  00000+0 -50263-2 0  9993
2 13070  62.5676 194.5621 6990686 283.0410  13.0052  2.00510447298491
MOLNIYA 3-20            
1 13875U 83015A   22328.10308372  .00001223  00000+0  23625-2 0  9999
2 13875  62.6481 327.4108 7391165 259.6321  17.4470  2.00776149226917
MOLNIYA 1-56            
1 13890U 83019A   22329.25410113  .00001497  00000+0  63722-3 0  9990
2 13890  62.9166 352.1484 7450894 265.4524  14.7177  1.99969773289821
MOLNIYA 1-63            
1 15429U 84124A   22329.50182038 -.00000566  00000+0  00000+0 0  9991
2 15429  63.7533 152.2110 6690643 258.4859  19.7679  2.00829932277984
MOLNIYA 3-24            
1 15738U 85040A   22329.33230280 -.00000041  00000+0  13918-2 0  9999
2 15738  63.6103  52.5249 6852202 247.2372  30.1904  2.55628240307982
MOLNIYA 3-27            
1 16393U 85117A   22329.71658891 -.00000093  00000+0  00000+0 0  9998
2 16393  64.3238  60.2030 7037951 247.4339  27.7605  2.12396983277629
MOLNIYA 1-69            
1 17078U 86089A   22325.84441349  .00000710  00000+0  00000+0 0  9991
2 17078  63.9964 171.5508 6683845 256.8599  26.0202  2.00704680263980
MOLNIYA 3-31            
1 17328U 87008A   22329.44542447  .00000211  00000+0  00000+0 0  9998
2 17328  63.6857 109.1780 7112776 253.3785  23.3349  2.00681051259124
MOLNIYA 1-71            
1 18946U 88017A   22328.90862365 -.00000079  00000+0  00000+0 0  9993
2 18946  63.3680 102.2571 7224360 256.3178  20.6444  2.00584057254271
MOLNIYA 1-75            
1 19807U 89014A   22329.14318272 -.00000096  00000+0  00000+0 0  9997
2 19807  63.9929 267.1124 6804431 266.2229  20.1937  2.00567792247220
MOLNIYA 1-80            
1 21118U 91012A   22329.41575156 -.00000797  00000+0  00000+0 0  9990
2 21118  65.1947 315.5084 6753168 275.5564  16.8185  2.05243793234297
MOLNIYA 3-40            
1 21196U 91022A   22325.96547857 -.00001140  00000+0  00000+0 0  9993
2 21196  65.0883 309.5456 6782058 272.4450  17.7267  2.03023603232885
MOLNIYA 1-81            
1 21426U 91043A   22329.03009236 -.00000180  00000+0  00000+0 0  9991
2 21426  64.0356 323.7194 7076422 266.1240  17.6956  2.00627049230389
MOLNIYA 3-41            
1 21706U 91065A   22329.88751308 -.00000134  00000+0  00000+0 0  9992
2 21706  64.0931 148.2361 6902184 254.3805  25.0727  2.04345593230220
MOLNIYA 3-42            
1 22178U 92067A   22327.57260635  .00000238  00000+0  00000+0 0  9995
2 22178  64.6714 199.2680 6419179 264.4468  24.6276  2.20434535 83563
MOLNIYA 1-86            
1 22671U 93035A   22330.06666116  .00000055  00000+0  72974-4 0  9992
2 22671  63.0888 142.8699 4862737   9.6736 357.0737  5.62759247361346
MOLNIYA 1-87            
1 22949U 93079A   22328.75608335 -.00001151  00000+0  00000+0 0  9995
2 22949  64.1387  73.8067 6906655 283.3487  13.4223  2.02871307 78189
MOLNIYA 1-88            
1 23420U 94081A   22329.93129598  .00000130  00000+0  00000+0 0  9999
2 23420  64.2812 160.1835 5794943 280.0395  22.6421  3.34495228252341
MOLNIYA 3-47            
1 23642U 95042A   22329.19860015 -.00001288  00000+0  00000+0 0  9993
2 23642  64.2753  55.3329 6951414 283.6049  13.0510  2.01962621200264
MOLNIYA 1-90            
1 24960U 97054A   22329.69300254  .00000079  00000+0 -42051-2 0  9993
2 24960  63.6806 126.2423 6098747 297.5376  14.0951  3.18687390213227
MOLNIYA 1-91            
1 25485U 98054A   22329.93238146  .00000180  00000+0  22925-2 0  9994
2 25485  63.0984 125.1236 6770170 291.8709 337.9536  2.36442409182191
MOLNIYA 3-50            
1 25847U 99036A   22328.99181428 -.00000311  00000+0 -19791-2 0  9997
2 25847  63.2803 309.9107 7339578 282.4548  10.7564  2.00665403171338
